CCSDS_OMM_VERS = 2.0
CREATION_DATE  = 
ORIGINATOR     = 

OBJECT_NAME    = STARLINK-36936
OBJECT_ID      = 2026-039AC
CENTER_NAME    = EARTH
REF_FRAME      = TEME
TIME_SYSTEM    = UTC
MEAN_ELEMENT_THEORY = SGP/SGP4

EPOCH          = 2026-03-15T14:00:01.999872
MEAN_MOTION    = 15.74222316
ECCENTRICITY   = .00013717
INCLINATION    = 42.9999
RA_OF_ASC_NODE = 18.5793
ARG_OF_PERICENTER = 255.6010
MEAN_ANOMALY   = 9.8633

EPHEMERIS_TYPE = 0
CLASSIFICATION_TYPE = U
NORAD_CAT_ID   = 68012
ELEMENT_SET_NO = 999
REV_AT_EPOCH   = 382
BSTAR          = -.15134533E-1
MEAN_MOTION_DOT = -.198398E-1
MEAN_MOTION_DDOT = 0

CCSDS_OMM_VERS = 2.0
CREATION_DATE  = 
ORIGINATOR     = 

OBJECT_NAME    = STARLINK-36967
OBJECT_ID      = 2026-039AD
CENTER_NAME    = EARTH
REF_FRAME      = TEME
TIME_SYSTEM    = UTC
MEAN_ELEMENT_THEORY = SGP/SGP4

EPOCH          = 2026-03-15T14:00:01.999872
MEAN_MOTION    = 15.65257424
ECCENTRICITY   = .00013045
INCLINATION    = 42.9998
RA_OF_ASC_NODE = 18.8592
ARG_OF_PERICENTER = 262.2848
MEAN_ANOMALY   = 250.9835

EPHEMERIS_TYPE = 0
CLASSIFICATION_TYPE = U
NORAD_CAT_ID   = 68013
ELEMENT_SET_NO = 999
REV_AT_EPOCH   = 382
BSTAR          = -.22078193E-1
MEAN_MOTION_DOT = -.1984384E-1
MEAN_MOTION_DDOT = 0

CCSDS_OMM_VERS = 2.0
CREATION_DATE  = 
ORIGINATOR     = 

OBJECT_NAME    = STARLINK-36985
OBJECT_ID      = 2026-039AE
CENTER_NAME    = EARTH
REF_FRAME      = TEME
TIME_SYSTEM    = UTC
MEAN_ELEMENT_THEORY = SGP/SGP4

EPOCH          = 2026-03-15T12:47:27.431232
MEAN_MOTION    = 15.82150445
ECCENTRICITY   = .00023145
INCLINATION    = 42.9990
RA_OF_ASC_NODE = 18.8342
ARG_OF_PERICENTER = 13.3910
MEAN_ANOMALY   = 346.7023

EPHEMERIS_TYPE = 0
CLASSIFICATION_TYPE = U
NORAD_CAT_ID   = 68014
ELEMENT_SET_NO = 999
REV_AT_EPOCH   = 256
BSTAR          = .24325666E-2
MEAN_MOTION_DOT = .548947E-2
MEAN_MOTION_DDOT = 0

CCSDS_OMM_VERS = 2.0
CREATION_DATE  = 
ORIGINATOR     = 

OBJECT_NAME    = STARLINK-36335
OBJECT_ID      = 2026-040A
CENTER_NAME    = EARTH
REF_FRAME      = TEME
TIME_SYSTEM    = UTC
MEAN_ELEMENT_THEORY = SGP/SGP4

EPOCH          = 2026-03-15T14:00:01.999872
MEAN_MOTION    = 15.91142420
ECCENTRICITY   = .00016331
INCLINATION    = 97.2708
RA_OF_ASC_NODE = 23.2528
ARG_OF_PERICENTER = 100.0257
MEAN_ANOMALY   = 72.5783

EPHEMERIS_TYPE = 0
CLASSIFICATION_TYPE = U
NORAD_CAT_ID   = 68015
ELEMENT_SET_NO = 999
REV_AT_EPOCH   = 332
BSTAR          = -.50326306E-2
MEAN_MOTION_DOT = -.1574786E-1
MEAN_MOTION_DDOT = .69212347E-3

CCSDS_OMM_VERS = 2.0
CREATION_DATE  = 
ORIGINATOR     = 

OBJECT_NAME    = STARLINK-36923
OBJECT_ID      = 2026-040B
CENTER_NAME    = EARTH
REF_FRAME      = TEME
TIME_SYSTEM    = UTC
MEAN_ELEMENT_THEORY = SGP/SGP4

EPOCH          = 2026-03-15T14:00:01.999872
MEAN_MOTION    = 15.91199390
ECCENTRICITY   = .00015715
INCLINATION    = 97.2712
RA_OF_ASC_NODE = 23.2571
ARG_OF_PERICENTER = 89.7927
MEAN_ANOMALY   = 91.4240

EPHEMERIS_TYPE = 0
CLASSIFICATION_TYPE = U
NORAD_CAT_ID   = 68016
ELEMENT_SET_NO = 999
REV_AT_EPOCH   = 337
BSTAR          = -.50605458E-2
MEAN_MOTION_DOT = -.1587952E-1
MEAN_MOTION_DDOT = .70328801E-3

CCSDS_OMM_VERS = 2.0
CREATION_DATE  = 
ORIGINATOR     = 

OBJECT_NAME    = STARLINK-36568
OBJECT_ID      = 2026-040C
CENTER_NAME    = EARTH
REF_FRAME      = TEME
TIME_SYSTEM    = UTC
MEAN_ELEMENT_THEORY = SGP/SGP4

EPOCH          = 2026-03-15T14:00:01.999872
MEAN_MOTION    = 15.91233386
ECCENTRICITY   = .0001591
INCLINATION    = 97.2710
RA_OF_ASC_NODE = 23.2586
ARG_OF_PERICENTER = 82.8166
MEAN_ANOMALY   = 102.4959

EPHEMERIS_TYPE = 0
CLASSIFICATION_TYPE = U
NORAD_CAT_ID   = 68017
ELEMENT_SET_NO = 999
REV_AT_EPOCH   = 337
BSTAR          = -.5038325E-2
MEAN_MOTION_DOT = -.1583768E-1
MEAN_MOTION_DDOT = .70009467E-3

CCSDS_OMM_VERS = 2.0
CREATION_DATE  = 
ORIGINATOR     = 

OBJECT_NAME    = STARLINK-36930
OBJECT_ID      = 2026-040D
CENTER_NAME    = EARTH
REF_FRAME      = TEME
TIME_SYSTEM    = UTC
MEAN_ELEMENT_THEORY = SGP/SGP4

EPOCH          = 2026-03-15T14:00:01.999872
MEAN_MOTION    = 15.91162903
ECCENTRICITY   = .00014728
INCLINATION    = 97.2707
RA_OF_ASC_NODE = 23.2550
ARG_OF_PERICENTER = 86.2402
MEAN_ANOMALY   = 90.6619

EPHEMERIS_TYPE = 0
CLASSIFICATION_TYPE = U
NORAD_CAT_ID   = 68018
ELEMENT_SET_NO = 999
REV_AT_EPOCH   = 337
BSTAR          = -.4996988E-2
MEAN_MOTION_DOT = -.1565332E-1
MEAN_MOTION_DDOT = .68458638E-3

CCSDS_OMM_VERS = 2.0
CREATION_DATE  = 
ORIGINATOR     = 

OBJECT_NAME    = STARLINK-36921
OBJECT_ID      = 2026-040E
CENTER_NAME    = EARTH
REF_FRAME      = TEME
TIME_SYSTEM    = UTC
MEAN_ELEMENT_THEORY = SGP/SGP4

EPOCH          = 2026-03-15T14:00:01.999872
MEAN_MOTION    = 15.91334581
ECCENTRICITY   = .00015224
INCLINATION    = 97.2718
RA_OF_ASC_NODE = 23.2627
ARG_OF_PERICENTER = 94.5129
MEAN_ANOMALY   = 98.5377

EPHEMERIS_TYPE = 0
CLASSIFICATION_TYPE = U
NORAD_CAT_ID   = 68019
ELEMENT_SET_NO = 999
REV_AT_EPOCH   = 337
BSTAR          = -.5016881E-2
MEAN_MOTION_DOT = -.1585142E-1
MEAN_MOTION_DDOT = .7019227E-3

CCSDS_OMM_VERS = 2.0
CREATION_DATE  = 
ORIGINATOR     = 

OBJECT_NAME    = STARLINK-36928
OBJECT_ID      = 2026-040F
CENTER_NAME    = EARTH
REF_FRAME      = TEME
TIME_SYSTEM    = UTC
MEAN_ELEMENT_THEORY = SGP/SGP4

EPOCH          = 2026-03-15T14:00:01.999872
MEAN_MOTION    = 15.91306708
ECCENTRICITY   = .00015054
INCLINATION    = 97.2711
RA_OF_ASC_NODE = 23.2596
ARG_OF_PERICENTER = 93.4177
MEAN_ANOMALY   = 95.4438

EPHEMERIS_TYPE = 0
CLASSIFICATION_TYPE = U
NORAD_CAT_ID   = 68020
ELEMENT_SET_NO = 999
REV_AT_EPOCH   = 337
BSTAR          = -.50455977E-2
MEAN_MOTION_DOT = -.1591873E-1
MEAN_MOTION_DDOT = .7072625E-3

CCSDS_OMM_VERS = 2.0
CREATION_DATE  = 
ORIGINATOR     = 

OBJECT_NAME    = STARLINK-36858
OBJECT_ID      = 2026-040G
CENTER_NAME    = EARTH
REF_FRAME      = TEME
TIME_SYSTEM    = UTC
MEAN_ELEMENT_THEORY = SGP/SGP4

EPOCH          = 2026-03-15T09:27:52.728192
MEAN_MOTION    = 16.05679276
ECCENTRICITY   = .0000853
INCLINATION    = 97.2746
RA_OF_ASC_NODE = 23.1317
ARG_OF_PERICENTER = 148.8041
MEAN_ANOMALY   = 211.3292

EPHEMERIS_TYPE = 0
CLASSIFICATION_TYPE = U
NORAD_CAT_ID   = 68021
ELEMENT_SET_NO = 999
REV_AT_EPOCH   = 225
BSTAR          = -.10615E-2
MEAN_MOTION_DOT = -.749803E-2
MEAN_MOTION_DDOT = .20538E-3

CCSDS_OMM_VERS = 2.0
CREATION_DATE  = 
ORIGINATOR     = 

OBJECT_NAME    = STARLINK-36916
OBJECT_ID      = 2026-040H
CENTER_NAME    = EARTH
REF_FRAME      = TEME
TIME_SYSTEM    = UTC
MEAN_ELEMENT_THEORY = SGP/SGP4

EPOCH          = 2026-03-15T14:00:01.999872
MEAN_MOTION    = 15.91411550
ECCENTRICITY   = .00015196
INCLINATION    = 97.2714
RA_OF_ASC_NODE = 23.2655
ARG_OF_PERICENTER = 96.9325
MEAN_ANOMALY   = 104.4437

EPHEMERIS_TYPE = 0
CLASSIFICATION_TYPE = U
NORAD_CAT_ID   = 68022
ELEMENT_SET_NO = 999
REV_AT_EPOCH   = 337
BSTAR          = -.50393687E-2
MEAN_MOTION_DOT = -.1598353E-1
MEAN_MOTION_DDOT = .71335248E-3

CCSDS_OMM_VERS = 2.0
CREATION_DATE  = 
ORIGINATOR     = 

OBJECT_NAME    = STARLINK-36871
OBJECT_ID      = 2026-040J
CENTER_NAME    = EARTH
REF_FRAME      = TEME
TIME_SYSTEM    = UTC
MEAN_ELEMENT_THEORY = SGP/SGP4

EPOCH          = 2026-03-15T14:00:01.999872
MEAN_MOTION    = 15.91452313
ECCENTRICITY   = .00015375
INCLINATION    = 97.2712
RA_OF_ASC_NODE = 23.2665
ARG_OF_PERICENTER = 91.6213
MEAN_ANOMALY   = 113.9495

EPHEMERIS_TYPE = 0
CLASSIFICATION_TYPE = U
NORAD_CAT_ID   = 68023
ELEMENT_SET_NO = 999
REV_AT_EPOCH   = 337
BSTAR          = -.50555833E-2
MEAN_MOTION_DOT = -.1606741E-1
MEAN_MOTION_DDOT = .72060393E-3

