STARLINK-36936          
1 68012U 26039AC  26074.58335648 -.01983980  00000+0 -15135-1 0  9993
2 68012  42.9999  18.5793 0001371 255.6010   9.8633 15.74222316  3820
STARLINK-36967          
1 68013U 26039AD  26074.58335648 -.01984384  00000+0 -22078-1 0  9997
2 68013  42.9998  18.8592 0001304 262.2848 250.9835 15.65257424  3820
STARLINK-36985          
1 68014U 26039AE  26074.53295638  .00548947  00000+0  24326-2 0  9994
2 68014  42.9990  18.8342 0002314  13.3910 346.7023 15.82150445  2560
STARLINK-36335          
1 68015U 26040A   26074.58335648 -.01574786  69212-3 -50326-2 0  9994
2 68015  97.2708  23.2528 0001633 100.0257  72.5783 15.91142420  3324
STARLINK-36923          
1 68016U 26040B   26074.58335648 -.01587952  70329-3 -50605-2 0  9995
2 68016  97.2712  23.2571 0001571  89.7927  91.4240 15.91199390  3377
STARLINK-36568          
1 68017U 26040C   26074.58335648 -.01583768  70009-3 -50383-2 0  9995
2 68017  97.2710  23.2586 0001591  82.8166 102.4959 15.91233386  3377
STARLINK-36930          
1 68018U 26040D   26074.58335648 -.01565332  68459-3 -49970-2 0  9999
2 68018  97.2707  23.2550 0001472  86.2402  90.6619 15.91162903  3371
STARLINK-36921          
1 68019U 26040E   26074.58335648 -.01585142  70192-3 -50169-2 0  9990
2 68019  97.2718  23.2627 0001522  94.5129  98.5377 15.91334581  3374
STARLINK-36928          
1 68020U 26040F   26074.58335648 -.01591873  70726-3 -50456-2 0  9992
2 68020  97.2711  23.2596 0001505  93.4177  95.4438 15.91306708  3370
STARLINK-36858          
1 68021U 26040G   26074.39436028 -.00749803  20538-3 -10615-2 0  9992
2 68021  97.2746  23.1317 0000853 148.8041 211.3292 16.05679276  2251
STARLINK-36916          
1 68022U 26040H   26074.58335648 -.01598353  71335-3 -50394-2 0  9992
2 68022  97.2714  23.2655 0001519  96.9325 104.4437 15.91411550  3371
STARLINK-36871          
1 68023U 26040J   26074.58335648 -.01606741  72060-3 -50556-2 0  9990
2 68023  97.2712  23.2665 0001537  91.6213 113.9495 15.91452313  3370
